{"type":"FeatureCollection","features":[{"type":"Feature","id":"1","properties":{"code":"1","name":"Manhattan","kind":"borough"},"geometry":{"type":"Point","coordinates":[-73.9602455,40.7887191]}},{"type":"Feature","id":"2","properties":{"code":"2","name":"Bronx","kind":"borough"},"geometry":{"type":"Point","coordinates":[-73.8663175,40.8560458]}},{"type":"Feature","id":"3","properties":{"code":"3","name":"Brooklyn","kind":"borough"},"geometry":{"type":"Point","coordinates":[-73.9486182,40.6543412]}},{"type":"Feature","id":"4","properties":{"code":"4","name":"Queens","kind":"borough"},"geometry":{"type":"Point","coordinates":[-73.8202222,40.7043972]}},{"type":"Feature","id":"5","properties":{"code":"5","name":"Staten Island","kind":"borough"},"geometry":{"type":"Point","coordinates":[-74.1455929,40.5725077]}}]}
