{"type":"FeatureCollection","features":[{"type":"Feature","properties":{"code":"BK0101","name":"Greenpoint","kind":"neighborhood"},"geometry":{"type":"Point","coordinates":[-73.948448,40.7288237]}},{"type":"Feature","properties":{"code":"BK0102","name":"Williamsburg","kind":"neighborhood"},"geometry":{"type":"Point","coordinates":[-73.9599363,40.7153535]}},{"type":"Feature","properties":{"code":"BK0103","name":"South Williamsburg","kind":"neighborhood"},"geometry":{"type":"Point","coordinates":[-73.9561764,40.7032649]}},{"type":"Feature","properties":{"code":"BK0104","name":"East Williamsburg","kind":"neighborhood"},"geometry":{"type":"Point","coordinates":[-73.9423293,40.7144696]}},{"type":"Feature","properties":{"code":"BK0201","name":"Brooklyn Heights","kind":"neighborhood"},"geometry":{"type":"Point","coordinates":[-73.9953465,40.6961248]}},{"type":"Feature","properties":{"code":"BK0202","name":"Downtown Brooklyn-DUMBO-Boerum Hill","kind":"neighborhood"},"geometry":{"type":"Point","coordinates":[-73.9851907,40.6942527]}},{"type":"Feature","properties":{"code":"BK0203","name":"Fort Greene","kind":"neighborhood"},"geometry":{"type":"Point","coordinates":[-73.9755438,40.6906576]}},{"type":"Feature","properties":{"code":"BK0204","name":"Clinton Hill","kind":"neighborhood"},"geometry":{"type":"Point","coordinates":[-73.9651102,40.6894066]}},{"type":"Feature","properties":{"code":"BK0301","name":"Bedford-Stuyvesant (West)","kind":"neighborhood"},"geometry":{"type":"Point","coordinates":[-73.9511046,40.6891097]}},{"type":"Feature","properties":{"code":"BK0302","name":"Bedford-Stuyvesant (East)","kind":"neighborhood"},"geometry":{"type":"Point","coordinates":[-73.9314449,40.6887851]}},{"type":"Feature","properties":{"code":"BK0401","name":"Bushwick (West)","kind":"neighborhood"},"geometry":{"type":"Point","coordinates":[-73.9260731,40.7010922]}},{"type":"Feature","properties":{"code":"BK0402","name":"Bushwick (East)","kind":"neighborhood"},"geometry":{"type":"Point","coordinates":[-73.9130965,40.6903322]}},{"type":"Feature","properties":{"code":"BK0501","name":"Cypress Hills","kind":"neighborhood"},"geometry":{"type":"Point","coordinates":[-73.8763483,40.6834069]}},{"type":"Feature","properties":{"code":"BK0502","name":"East New York (North)","kind":"neighborhood"},"geometry":{"type":"Point","coordinates":[-73.8888004,40.6729152]}},{"type":"Feature","properties":{"code":"BK0503","name":"East New York-New Lots","kind":"neighborhood"},"geometry":{"type":"Point","coordinates":[-73.8855951,40.6588985]}},{"type":"Feature","properties":{"code":"BK0504","name":"Spring Creek-Starrett City","kind":"neighborhood"},"geometry":{"type":"Point","coordinates":[-73.8835933,40.6496551]}},{"type":"Feature","properties":{"code":"BK0505","name":"East New York-City Line","kind":"neighborhood"},"geometry":{"type":"Point","coordinates":[-73.8652802,40.6690596]}},{"type":"Feature","properties":{"code":"BK0601","name":"Carroll Gardens-Cobble Hill-Gowanus-Red Hook","kind":"neighborhood"},"geometry":{"type":"Point","coordinates":[-74.0002526,40.6786164]}},{"type":"Feature","properties":{"code":"BK0602","name":"Park Slope","kind":"neighborhood"},"geometry":{"type":"Point","coordinates":[-73.9776576,40.6730633]}},{"type":"Feature","properties":{"code":"BK0701","name":"Windsor Terrace-South Slope","kind":"neighborhood"},"geometry":{"type":"Point","coordinates":[-73.9792983,40.6569694]}},{"type":"Feature","properties":{"code":"BK0702","name":"Sunset Park (West)","kind":"neighborhood"},"geometry":{"type":"Point","coordinates":[-74.0087458,40.6550563]}},{"type":"Feature","properties":{"code":"BK0703","name":"Sunset Park (Central)","kind":"neighborhood"},"geometry":{"type":"Point","coordinates":[-74.0075959,40.6425521]}},{"type":"Feature","properties":{"code":"BK0801","name":"Prospect Heights","kind":"neighborhood"},"geometry":{"type":"Point","coordinates":[-73.9682696,40.6771825]}},{"type":"Feature","properties":{"code":"BK0802","name":"Crown Heights (North)","kind":"neighborhood"},"geometry":{"type":"Point","coordinates":[-73.9413816,40.6734042]}},{"type":"Feature","properties":{"code":"BK0901","name":"Crown Heights (South)","kind":"neighborhood"},"geometry":{"type":"Point","coordinates":[-73.9451067,40.6672751]}},{"type":"Feature","properties":{"code":"BK0902","name":"Prospect Lefferts Gardens-Wingate","kind":"neighborhood"},"geometry":{"type":"Point","coordinates":[-73.9483759,40.6593637]}},{"type":"Feature","properties":{"code":"BK1001","name":"Bay Ridge","kind":"neighborhood"},"geometry":{"type":"Point","coordinates":[-74.0295012,40.6274108]}},{"type":"Feature","properties":{"code":"BK1002","name":"Dyker Heights","kind":"neighborhood"},"geometry":{"type":"Point","coordinates":[-74.0091959,40.6243974]}},{"type":"Feature","properties":{"code":"BK1101","name":"Bensonhurst","kind":"neighborhood"},"geometry":{"type":"Point","coordinates":[-73.9927025,40.6133]}},{"type":"Feature","properties":{"code":"BK1102","name":"Bath Beach","kind":"neighborhood"},"geometry":{"type":"Point","coordinates":[-74.0106156,40.6039777]}},{"type":"Feature","properties":{"code":"BK1103","name":"Gravesend (West)","kind":"neighborhood"},"geometry":{"type":"Point","coordinates":[-73.9845184,40.5986025]}},{"type":"Feature","properties":{"code":"BK1201","name":"Sunset Park (East)-Borough Park (West)","kind":"neighborhood"},"geometry":{"type":"Point","coordinates":[-73.999182,40.6406855]}},{"type":"Feature","properties":{"code":"BK1202","name":"Borough Park","kind":"neighborhood"},"geometry":{"type":"Point","coordinates":[-73.9905492,40.6337426]}},{"type":"Feature","properties":{"code":"BK1203","name":"Kensington","kind":"neighborhood"},"geometry":{"type":"Point","coordinates":[-73.9744734,40.6399831]}},{"type":"Feature","properties":{"code":"BK1204","name":"Mapleton-Midwood (West)","kind":"neighborhood"},"geometry":{"type":"Point","coordinates":[-73.9746162,40.6189018]}},{"type":"Feature","properties":{"code":"BK1301","name":"Gravesend (South)","kind":"neighborhood"},"geometry":{"type":"Point","coordinates":[-73.9772828,40.5886766]}},{"type":"Feature","properties":{"code":"BK1302","name":"Coney Island-Sea Gate","kind":"neighborhood"},"geometry":{"type":"Point","coordinates":[-73.9904807,40.5768637]}},{"type":"Feature","properties":{"code":"BK1303","name":"Brighton Beach","kind":"neighborhood"},"geometry":{"type":"Point","coordinates":[-73.9606005,40.5791118]}},{"type":"Feature","properties":{"code":"BK1401","name":"Flatbush","kind":"neighborhood"},"geometry":{"type":"Point","coordinates":[-73.9590676,40.6422489]}},{"type":"Feature","properties":{"code":"BK1402","name":"Flatbush (West)-Ditmas Park-Parkville","kind":"neighborhood"},"geometry":{"type":"Point","coordinates":[-73.9636667,40.6383926]}},{"type":"Feature","properties":{"code":"BK1403","name":"Midwood","kind":"neighborhood"},"geometry":{"type":"Point","coordinates":[-73.9546192,40.6210446]}},{"type":"Feature","properties":{"code":"BK1501","name":"Gravesend (East)-Homecrest","kind":"neighborhood"},"geometry":{"type":"Point","coordinates":[-73.9651983,40.6002048]}},{"type":"Feature","properties":{"code":"BK1502","name":"Madison","kind":"neighborhood"},"geometry":{"type":"Point","coordinates":[-73.9484742,40.606558]}},{"type":"Feature","properties":{"code":"BK1503","name":"Sheepshead Bay-Manhattan Beach-Gerritsen Beach","kind":"neighborhood"},"geometry":{"type":"Point","coordinates":[-73.9433114,40.5884643]}},{"type":"Feature","properties":{"code":"BK1601","name":"Ocean Hill","kind":"neighborhood"},"geometry":{"type":"Point","coordinates":[-73.9113679,40.6774162]}},{"type":"Feature","properties":{"code":"BK1602","name":"Brownsville","kind":"neighborhood"},"geometry":{"type":"Point","coordinates":[-73.9097296,40.6638096]}},{"type":"Feature","properties":{"code":"BK1701","name":"East Flatbush-Erasmus","kind":"neighborhood"},"geometry":{"type":"Point","coordinates":[-73.9507642,40.6473093]}},{"type":"Feature","properties":{"code":"BK1702","name":"East Flatbush-Farragut","kind":"neighborhood"},"geometry":{"type":"Point","coordinates":[-73.9370978,40.6395291]}},{"type":"Feature","properties":{"code":"BK1703","name":"East Flatbush-Rugby","kind":"neighborhood"},"geometry":{"type":"Point","coordinates":[-73.9313193,40.6517203]}},{"type":"Feature","properties":{"code":"BK1704","name":"East Flatbush-Remsen Village","kind":"neighborhood"},"geometry":{"type":"Point","coordinates":[-73.917732,40.6555417]}},{"type":"Feature","properties":{"code":"BK1801","name":"Flatlands","kind":"neighborhood"},"geometry":{"type":"Point","coordinates":[-73.9325436,40.62739]}},{"type":"Feature","properties":{"code":"BK1802","name":"Marine Park-Mill Basin-Bergen Beach","kind":"neighborhood"},"geometry":{"type":"Point","coordinates":[-73.9079814,40.6177914]}},{"type":"Feature","properties":{"code":"BK1803","name":"Canarsie","kind":"neighborhood"},"geometry":{"type":"Point","coordinates":[-73.9003381,40.6401912]}},{"type":"Feature","properties":{"code":"BX0101","name":"Mott Haven-Port Morris","kind":"neighborhood"},"geometry":{"type":"Point","coordinates":[-73.9170584,40.8074395]}},{"type":"Feature","properties":{"code":"BX0102","name":"Melrose","kind":"neighborhood"},"geometry":{"type":"Point","coordinates":[-73.913583,40.8182595]}},{"type":"Feature","properties":{"code":"BX0201","name":"Hunts Point","kind":"neighborhood"},"geometry":{"type":"Point","coordinates":[-73.8854196,40.8117886]}},{"type":"Feature","properties":{"code":"BX0202","name":"Longwood","kind":"neighborhood"},"geometry":{"type":"Point","coordinates":[-73.8983365,40.8190001]}},{"type":"Feature","properties":{"code":"BX0301","name":"Morrisania","kind":"neighborhood"},"geometry":{"type":"Point","coordinates":[-73.9044193,40.8279929]}},{"type":"Feature","properties":{"code":"BX0302","name":"Claremont Village-Claremont (East)","kind":"neighborhood"},"geometry":{"type":"Point","coordinates":[-73.9036306,40.8369973]}},{"type":"Feature","properties":{"code":"BX0303","name":"Crotona Park East","kind":"neighborhood"},"geometry":{"type":"Point","coordinates":[-73.8897822,40.8312931]}},{"type":"Feature","properties":{"code":"BX0401","name":"Concourse-Concourse Village","kind":"neighborhood"},"geometry":{"type":"Point","coordinates":[-73.9243416,40.8254494]}},{"type":"Feature","properties":{"code":"BX0402","name":"Highbridge","kind":"neighborhood"},"geometry":{"type":"Point","coordinates":[-73.9273907,40.8368027]}},{"type":"Feature","properties":{"code":"BX0403","name":"Mount Eden-Claremont (West)","kind":"neighborhood"},"geometry":{"type":"Point","coordinates":[-73.9151532,40.8395489]}},{"type":"Feature","properties":{"code":"BX0501","name":"University Heights (South)-Morris Heights","kind":"neighborhood"},"geometry":{"type":"Point","coordinates":[-73.9162355,40.8519778]}},{"type":"Feature","properties":{"code":"BX0502","name":"Mount Hope","kind":"neighborhood"},"geometry":{"type":"Point","coordinates":[-73.903759,40.8510073]}},{"type":"Feature","properties":{"code":"BX0503","name":"Fordham Heights","kind":"neighborhood"},"geometry":{"type":"Point","coordinates":[-73.8996427,40.8583656]}},{"type":"Feature","properties":{"code":"BX0601","name":"West Farms","kind":"neighborhood"},"geometry":{"type":"Point","coordinates":[-73.8805773,40.8417887]}},{"type":"Feature","properties":{"code":"BX0602","name":"Tremont","kind":"neighborhood"},"geometry":{"type":"Point","coordinates":[-73.8918443,40.8468848]}},{"type":"Feature","properties":{"code":"BX0603","name":"Belmont","kind":"neighborhood"},"geometry":{"type":"Point","coordinates":[-73.8877709,40.8577963]}},{"type":"Feature","properties":{"code":"BX0701","name":"University Heights (North)-Fordham","kind":"neighborhood"},"geometry":{"type":"Point","coordinates":[-73.9021826,40.8648359]}},{"type":"Feature","properties":{"code":"BX0702","name":"Bedford Park","kind":"neighborhood"},"geometry":{"type":"Point","coordinates":[-73.8906652,40.873304]}},{"type":"Feature","properties":{"code":"BX0703","name":"Norwood","kind":"neighborhood"},"geometry":{"type":"Point","coordinates":[-73.8777613,40.87686]}},{"type":"Feature","properties":{"code":"BX0801","name":"Kingsbridge Heights-Van Cortlandt Village","kind":"neighborhood"},"geometry":{"type":"Point","coordinates":[-73.901937,40.8768722]}},{"type":"Feature","properties":{"code":"BX0802","name":"Kingsbridge-Marble Hill","kind":"neighborhood"},"geometry":{"type":"Point","coordinates":[-73.9052901,40.8814054]}},{"type":"Feature","properties":{"code":"BX0803","name":"Riverdale-Spuyten Duyvil","kind":"neighborhood"},"geometry":{"type":"Point","coordinates":[-73.9070534,40.8953738]}},{"type":"Feature","properties":{"code":"BX0901","name":"Soundview-Bruckner-Bronx River","kind":"neighborhood"},"geometry":{"type":"Point","coordinates":[-73.8734002,40.8296996]}},{"type":"Feature","properties":{"code":"BX0902","name":"Soundview-Clason Point","kind":"neighborhood"},"geometry":{"type":"Point","coordinates":[-73.8603647,40.8156692]}},{"type":"Feature","properties":{"code":"BX0903","name":"Castle Hill-Unionport","kind":"neighborhood"},"geometry":{"type":"Point","coordinates":[-73.8478615,40.8230491]}},{"type":"Feature","properties":{"code":"BX0904","name":"Parkchester","kind":"neighborhood"},"geometry":{"type":"Point","coordinates":[-73.8579416,40.8374044]}},{"type":"Feature","properties":{"code":"BX1001","name":"Westchester Square","kind":"neighborhood"},"geometry":{"type":"Point","coordinates":[-73.8465342,40.8393738]}},{"type":"Feature","properties":{"code":"BX1002","name":"Throgs Neck-Schuylerville","kind":"neighborhood"},"geometry":{"type":"Point","coordinates":[-73.819169,40.8246773]}},{"type":"Feature","properties":{"code":"BX1003","name":"Pelham Bay-Country Club-City Island","kind":"neighborhood"},"geometry":{"type":"Point","coordinates":[-73.8207054,40.8414755]}},{"type":"Feature","properties":{"code":"BX1004","name":"Co-op City","kind":"neighborhood"},"geometry":{"type":"Point","coordinates":[-73.8287566,40.8725219]}},{"type":"Feature","properties":{"code":"BX1101","name":"Pelham Parkway-Van Nest","kind":"neighborhood"},"geometry":{"type":"Point","coordinates":[-73.8652601,40.8487351]}},{"type":"Feature","properties":{"code":"BX1102","name":"Morris Park","kind":"neighborhood"},"geometry":{"type":"Point","coordinates":[-73.8532034,40.8504064]}},{"type":"Feature","properties":{"code":"BX1103","name":"Pelham Gardens","kind":"neighborhood"},"geometry":{"type":"Point","coordinates":[-73.8480335,40.8658856]}},{"type":"Feature","properties":{"code":"BX1104","name":"Allerton","kind":"neighborhood"},"geometry":{"type":"Point","coordinates":[-73.8646105,40.8644763]}},{"type":"Feature","properties":{"code":"BX1201","name":"Williamsbridge-Olinville","kind":"neighborhood"},"geometry":{"type":"Point","coordinates":[-73.8600875,40.8826076]}},{"type":"Feature","properties":{"code":"BX1202","name":"Eastchester-Edenwald-Baychester","kind":"neighborhood"},"geometry":{"type":"Point","coordinates":[-73.8425953,40.8781758]}},{"type":"Feature","properties":{"code":"BX1203","name":"Wakefield-Woodlawn","kind":"neighborhood"},"geometry":{"type":"Point","coordinates":[-73.856813,40.8987042]}},{"type":"Feature","properties":{"code":"MN0101","name":"Financial District-Battery Park City","kind":"neighborhood"},"geometry":{"type":"Point","coordinates":[-74.0096725,40.7093209]}},{"type":"Feature","properties":{"code":"MN0102","name":"Tribeca-Civic Center","kind":"neighborhood"},"geometry":{"type":"Point","coordinates":[-74.0061053,40.7177835]}},{"type":"Feature","properties":{"code":"MN0201","name":"SoHo-Little Italy-Hudson Square","kind":"neighborhood"},"geometry":{"type":"Point","coordinates":[-73.9998145,40.722685]}},{"type":"Feature","properties":{"code":"MN0202","name":"Greenwich Village","kind":"neighborhood"},"geometry":{"type":"Point","coordinates":[-73.9960065,40.7308234]}},{"type":"Feature","properties":{"code":"MN0203","name":"West Village","kind":"neighborhood"},"geometry":{"type":"Point","coordinates":[-74.0044961,40.7353772]}},{"type":"Feature","properties":{"code":"MN0301","name":"Chinatown-Two Bridges","kind":"neighborhood"},"geometry":{"type":"Point","coordinates":[-73.9929966,40.7131708]}},{"type":"Feature","properties":{"code":"MN0302","name":"Lower East Side","kind":"neighborhood"},"geometry":{"type":"Point","coordinates":[-73.981876,40.7168394]}},{"type":"Feature","properties":{"code":"MN0303","name":"East Village","kind":"neighborhood"},"geometry":{"type":"Point","coordinates":[-73.9816997,40.7265124]}},{"type":"Feature","properties":{"code":"MN0401","name":"Chelsea-Hudson Yards","kind":"neighborhood"},"geometry":{"type":"Point","coordinates":[-74.0020751,40.7501395]}},{"type":"Feature","properties":{"code":"MN0402","name":"Hell's Kitchen","kind":"neighborhood"},"geometry":{"type":"Point","coordinates":[-73.9920592,40.7640289]}},{"type":"Feature","properties":{"code":"MN0501","name":"Midtown South-Flatiron-Union Square","kind":"neighborhood"},"geometry":{"type":"Point","coordinates":[-73.988439,40.7431175]}},{"type":"Feature","properties":{"code":"MN0502","name":"Midtown-Times Square","kind":"neighborhood"},"geometry":{"type":"Point","coordinates":[-73.9814108,40.7578578]}},{"type":"Feature","properties":{"code":"MN0601","name":"Stuyvesant Town-Peter Cooper Village","kind":"neighborhood"},"geometry":{"type":"Point","coordinates":[-73.9778421,40.7317282]}},{"type":"Feature","properties":{"code":"MN0602","name":"Gramercy","kind":"neighborhood"},"geometry":{"type":"Point","coordinates":[-73.9833257,40.7373484]}},{"type":"Feature","properties":{"code":"MN0603","name":"Murray Hill-Kips Bay","kind":"neighborhood"},"geometry":{"type":"Point","coordinates":[-73.9777081,40.7434385]}},{"type":"Feature","properties":{"code":"MN0604","name":"East Midtown-Turtle Bay","kind":"neighborhood"},"geometry":{"type":"Point","coordinates":[-73.9674013,40.7564131]}},{"type":"Feature","properties":{"code":"MN0701","name":"Upper West Side-Lincoln Square","kind":"neighborhood"},"geometry":{"type":"Point","coordinates":[-73.9850145,40.7745964]}},{"type":"Feature","properties":{"code":"MN0702","name":"Upper West Side (Central)","kind":"neighborhood"},"geometry":{"type":"Point","coordinates":[-73.9755719,40.7878883]}},{"type":"Feature","properties":{"code":"MN0703","name":"Upper West Side-Manhattan Valley","kind":"neighborhood"},"geometry":{"type":"Point","coordinates":[-73.9676805,40.7989057]}},{"type":"Feature","properties":{"code":"MN0801","name":"Upper East Side-Lenox Hill-Roosevelt Island","kind":"neighborhood"},"geometry":{"type":"Point","coordinates":[-73.9570551,40.7661461]}},{"type":"Feature","properties":{"code":"MN0802","name":"Upper East Side-Carnegie Hill","kind":"neighborhood"},"geometry":{"type":"Point","coordinates":[-73.9612038,40.7746868]}},{"type":"Feature","properties":{"code":"MN0803","name":"Upper East Side-Yorkville","kind":"neighborhood"},"geometry":{"type":"Point","coordinates":[-73.9486862,40.7776233]}},{"type":"Feature","properties":{"code":"MN0901","name":"Morningside Heights","kind":"neighborhood"},"geometry":{"type":"Point","coordinates":[-73.9618153,40.8095702]}},{"type":"Feature","properties":{"code":"MN0902","name":"Manhattanville-West Harlem","kind":"neighborhood"},"geometry":{"type":"Point","coordinates":[-73.9545903,40.8178829]}},{"type":"Feature","properties":{"code":"MN0903","name":"Hamilton Heights-Sugar Hill","kind":"neighborhood"},"geometry":{"type":"Point","coordinates":[-73.9473675,40.8275353]}},{"type":"Feature","properties":{"code":"MN1001","name":"Harlem (South)","kind":"neighborhood"},"geometry":{"type":"Point","coordinates":[-73.9521194,40.8041517]}},{"type":"Feature","properties":{"code":"MN1002","name":"Harlem (North)","kind":"neighborhood"},"geometry":{"type":"Point","coordinates":[-73.9392586,40.8216298]}},{"type":"Feature","properties":{"code":"MN1101","name":"East Harlem (South)","kind":"neighborhood"},"geometry":{"type":"Point","coordinates":[-73.9453052,40.790174]}},{"type":"Feature","properties":{"code":"MN1102","name":"East Harlem (North)","kind":"neighborhood"},"geometry":{"type":"Point","coordinates":[-73.9383354,40.8055717]}},{"type":"Feature","properties":{"code":"MN1201","name":"Washington Heights (South)","kind":"neighborhood"},"geometry":{"type":"Point","coordinates":[-73.9416705,40.8404012]}},{"type":"Feature","properties":{"code":"MN1202","name":"Washington Heights (North)","kind":"neighborhood"},"geometry":{"type":"Point","coordinates":[-73.9328244,40.8586699]}},{"type":"Feature","properties":{"code":"MN1203","name":"Inwood","kind":"neighborhood"},"geometry":{"type":"Point","coordinates":[-73.920655,40.8644862]}},{"type":"Feature","properties":{"code":"QN0101","name":"Astoria (North)-Ditmars-Steinway","kind":"neighborhood"},"geometry":{"type":"Point","coordinates":[-73.90667,40.7781942]}},{"type":"Feature","properties":{"code":"QN0102","name":"Old Astoria-Hallets Point","kind":"neighborhood"},"geometry":{"type":"Point","coordinates":[-73.9305752,40.7713173]}},{"type":"Feature","properties":{"code":"QN0103","name":"Astoria (Central)","kind":"neighborhood"},"geometry":{"type":"Point","coordinates":[-73.9225264,40.7643791]}},{"type":"Feature","properties":{"code":"QN0104","name":"Astoria (East)-Woodside (North)","kind":"neighborhood"},"geometry":{"type":"Point","coordinates":[-73.9103025,40.7605036]}},{"type":"Feature","properties":{"code":"QN0105","name":"Queensbridge-Ravenswood-Dutch Kills","kind":"neighborhood"},"geometry":{"type":"Point","coordinates":[-73.93863,40.7600301]}},{"type":"Feature","properties":{"code":"QN0201","name":"Long Island City-Hunters Point","kind":"neighborhood"},"geometry":{"type":"Point","coordinates":[-73.948801,40.7465581]}},{"type":"Feature","properties":{"code":"QN0202","name":"Sunnyside","kind":"neighborhood"},"geometry":{"type":"Point","coordinates":[-73.9307612,40.7380505]}},{"type":"Feature","properties":{"code":"QN0203","name":"Woodside","kind":"neighborhood"},"geometry":{"type":"Point","coordinates":[-73.9021655,40.7436724]}},{"type":"Feature","properties":{"code":"QN0301","name":"Jackson Heights","kind":"neighborhood"},"geometry":{"type":"Point","coordinates":[-73.8874289,40.7569144]}},{"type":"Feature","properties":{"code":"QN0302","name":"East Elmhurst","kind":"neighborhood"},"geometry":{"type":"Point","coordinates":[-73.8741185,40.76418]}},{"type":"Feature","properties":{"code":"QN0303","name":"North Corona","kind":"neighborhood"},"geometry":{"type":"Point","coordinates":[-73.8623245,40.7536339]}},{"type":"Feature","properties":{"code":"QN0401","name":"Elmhurst","kind":"neighborhood"},"geometry":{"type":"Point","coordinates":[-73.8769599,40.738508]}},{"type":"Feature","properties":{"code":"QN0402","name":"Corona","kind":"neighborhood"},"geometry":{"type":"Point","coordinates":[-73.8595064,40.7434049]}},{"type":"Feature","properties":{"code":"QN0501","name":"Maspeth","kind":"neighborhood"},"geometry":{"type":"Point","coordinates":[-73.910127,40.7238494]}},{"type":"Feature","properties":{"code":"QN0502","name":"Ridgewood","kind":"neighborhood"},"geometry":{"type":"Point","coordinates":[-73.9024111,40.7026245]}},{"type":"Feature","properties":{"code":"QN0503","name":"Glendale","kind":"neighborhood"},"geometry":{"type":"Point","coordinates":[-73.8820008,40.7026794]}},{"type":"Feature","properties":{"code":"QN0504","name":"Middle Village","kind":"neighborhood"},"geometry":{"type":"Point","coordinates":[-73.8799403,40.718645]}},{"type":"Feature","properties":{"code":"QN0601","name":"Rego Park","kind":"neighborhood"},"geometry":{"type":"Point","coordinates":[-73.8640102,40.7236479]}},{"type":"Feature","properties":{"code":"QN0602","name":"Forest Hills","kind":"neighborhood"},"geometry":{"type":"Point","coordinates":[-73.8480089,40.7230925]}},{"type":"Feature","properties":{"code":"QN0701","name":"College Point","kind":"neighborhood"},"geometry":{"type":"Point","coordinates":[-73.8371835,40.7819784]}},{"type":"Feature","properties":{"code":"QN0702","name":"Whitestone-Beechhurst","kind":"neighborhood"},"geometry":{"type":"Point","coordinates":[-73.8069037,40.7883125]}},{"type":"Feature","properties":{"code":"QN0703","name":"Bay Terrace-Clearview","kind":"neighborhood"},"geometry":{"type":"Point","coordinates":[-73.786851,40.7823163]}},{"type":"Feature","properties":{"code":"QN0704","name":"Murray Hill-Broadway Flushing","kind":"neighborhood"},"geometry":{"type":"Point","coordinates":[-73.8089114,40.769685]}},{"type":"Feature","properties":{"code":"QN0705","name":"East Flushing","kind":"neighborhood"},"geometry":{"type":"Point","coordinates":[-73.8065843,40.7536975]}},{"type":"Feature","properties":{"code":"QN0706","name":"Queensboro Hill","kind":"neighborhood"},"geometry":{"type":"Point","coordinates":[-73.8248247,40.7443657]}},{"type":"Feature","properties":{"code":"QN0707","name":"Flushing-Willets Point","kind":"neighborhood"},"geometry":{"type":"Point","coordinates":[-73.8335037,40.7600751]}},{"type":"Feature","properties":{"code":"QN0801","name":"Kew Gardens Hills","kind":"neighborhood"},"geometry":{"type":"Point","coordinates":[-73.822577,40.7277251]}},{"type":"Feature","properties":{"code":"QN0802","name":"Pomonok-Electchester-Hillcrest","kind":"neighborhood"},"geometry":{"type":"Point","coordinates":[-73.8029194,40.7275565]}},{"type":"Feature","properties":{"code":"QN0803","name":"Fresh Meadows-Utopia","kind":"neighborhood"},"geometry":{"type":"Point","coordinates":[-73.7877802,40.734102]}},{"type":"Feature","properties":{"code":"QN0804","name":"Jamaica Estates-Holliswood","kind":"neighborhood"},"geometry":{"type":"Point","coordinates":[-73.7755282,40.7205177]}},{"type":"Feature","properties":{"code":"QN0805","name":"Jamaica Hills-Briarwood","kind":"neighborhood"},"geometry":{"type":"Point","coordinates":[-73.8073871,40.7108913]}},{"type":"Feature","properties":{"code":"QN0901","name":"Kew Gardens","kind":"neighborhood"},"geometry":{"type":"Point","coordinates":[-73.8294708,40.7085777]}},{"type":"Feature","properties":{"code":"QN0902","name":"Richmond Hill","kind":"neighborhood"},"geometry":{"type":"Point","coordinates":[-73.8321659,40.6967116]}},{"type":"Feature","properties":{"code":"QN0903","name":"South Richmond Hill","kind":"neighborhood"},"geometry":{"type":"Point","coordinates":[-73.8256929,40.69111]}},{"type":"Feature","properties":{"code":"QN0904","name":"Ozone Park (North)","kind":"neighborhood"},"geometry":{"type":"Point","coordinates":[-73.8475059,40.6852879]}},{"type":"Feature","properties":{"code":"QN0905","name":"Woodhaven","kind":"neighborhood"},"geometry":{"type":"Point","coordinates":[-73.8572426,40.6918447]}},{"type":"Feature","properties":{"code":"QN1001","name":"South Ozone Park","kind":"neighborhood"},"geometry":{"type":"Point","coordinates":[-73.820707,40.6773375]}},{"type":"Feature","properties":{"code":"QN1002","name":"Ozone Park","kind":"neighborhood"},"geometry":{"type":"Point","coordinates":[-73.8493644,40.6751639]}},{"type":"Feature","properties":{"code":"QN1003","name":"Howard Beach-Lindenwood","kind":"neighborhood"},"geometry":{"type":"Point","coordinates":[-73.8488913,40.66139]}},{"type":"Feature","properties":{"code":"QN1101","name":"Auburndale","kind":"neighborhood"},"geometry":{"type":"Point","coordinates":[-73.7859763,40.7570972]}},{"type":"Feature","properties":{"code":"QN1102","name":"Bayside","kind":"neighborhood"},"geometry":{"type":"Point","coordinates":[-73.768524,40.7617257]}},{"type":"Feature","properties":{"code":"QN1103","name":"Douglaston-Little Neck","kind":"neighborhood"},"geometry":{"type":"Point","coordinates":[-73.731378,40.7623552]}},{"type":"Feature","properties":{"code":"QN1104","name":"Oakland Gardens-Hollis Hills","kind":"neighborhood"},"geometry":{"type":"Point","coordinates":[-73.7536756,40.7392762]}},{"type":"Feature","properties":{"code":"QN1201","name":"Jamaica","kind":"neighborhood"},"geometry":{"type":"Point","coordinates":[-73.8010729,40.7025778]}},{"type":"Feature","properties":{"code":"QN1202","name":"South Jamaica","kind":"neighborhood"},"geometry":{"type":"Point","coordinates":[-73.7918572,40.6941744]}},{"type":"Feature","properties":{"code":"QN1203","name":"Baisley Park","kind":"neighborhood"},"geometry":{"type":"Point","coordinates":[-73.7914094,40.6786798]}},{"type":"Feature","properties":{"code":"QN1204","name":"Springfield Gardens (North)-Rochdale Village","kind":"neighborhood"},"geometry":{"type":"Point","coordinates":[-73.7737283,40.6752166]}},{"type":"Feature","properties":{"code":"QN1205","name":"St. Albans","kind":"neighborhood"},"geometry":{"type":"Point","coordinates":[-73.7626163,40.6922593]}},{"type":"Feature","properties":{"code":"QN1206","name":"Hollis","kind":"neighborhood"},"geometry":{"type":"Point","coordinates":[-73.7643794,40.7120021]}},{"type":"Feature","properties":{"code":"QN1301","name":"Glen Oaks-Floral Park-New Hyde Park","kind":"neighborhood"},"geometry":{"type":"Point","coordinates":[-73.7089693,40.7433476]}},{"type":"Feature","properties":{"code":"QN1302","name":"Bellerose","kind":"neighborhood"},"geometry":{"type":"Point","coordinates":[-73.7278794,40.7367545]}},{"type":"Feature","properties":{"code":"QN1303","name":"Queens Village","kind":"neighborhood"},"geometry":{"type":"Point","coordinates":[-73.7417316,40.7154747]}},{"type":"Feature","properties":{"code":"QN1304","name":"Cambria Heights","kind":"neighborhood"},"geometry":{"type":"Point","coordinates":[-73.7355494,40.6932956]}},{"type":"Feature","properties":{"code":"QN1305","name":"Laurelton","kind":"neighborhood"},"geometry":{"type":"Point","coordinates":[-73.7445041,40.6761262]}},{"type":"Feature","properties":{"code":"QN1306","name":"Springfield Gardens (South)-Brookville","kind":"neighborhood"},"geometry":{"type":"Point","coordinates":[-73.7562244,40.6562522]}},{"type":"Feature","properties":{"code":"QN1307","name":"Rosedale","kind":"neighborhood"},"geometry":{"type":"Point","coordinates":[-73.7351825,40.6594346]}},{"type":"Feature","properties":{"code":"QN1401","name":"Far Rockaway-Bayswater","kind":"neighborhood"},"geometry":{"type":"Point","coordinates":[-73.7542501,40.6024888]}},{"type":"Feature","properties":{"code":"QN1402","name":"Rockaway Beach-Arverne-Edgemere","kind":"neighborhood"},"geometry":{"type":"Point","coordinates":[-73.787541,40.5922313]}},{"type":"Feature","properties":{"code":"QN1403","name":"Breezy Point-Belle Harbor-Rockaway Park-Broad Channel","kind":"neighborhood"},"geometry":{"type":"Point","coordinates":[-73.8485123,40.5768752]}},{"type":"Feature","properties":{"code":"SI0101","name":"St. George-New Brighton","kind":"neighborhood"},"geometry":{"type":"Point","coordinates":[-74.0861079,40.6423249]}},{"type":"Feature","properties":{"code":"SI0102","name":"Tompkinsville-Stapleton-Clifton-Fox Hills","kind":"neighborhood"},"geometry":{"type":"Point","coordinates":[-74.0797611,40.6258015]}},{"type":"Feature","properties":{"code":"SI0103","name":"Rosebank-Shore Acres-Park Hill","kind":"neighborhood"},"geometry":{"type":"Point","coordinates":[-74.0735798,40.6144808]}},{"type":"Feature","properties":{"code":"SI0104","name":"West New Brighton-Silver Lake-Grymes Hill","kind":"neighborhood"},"geometry":{"type":"Point","coordinates":[-74.1019607,40.6272385]}},{"type":"Feature","properties":{"code":"SI0105","name":"Westerleigh-Castleton Corners","kind":"neighborhood"},"geometry":{"type":"Point","coordinates":[-74.1286697,40.6194355]}},{"type":"Feature","properties":{"code":"SI0106","name":"Port Richmond","kind":"neighborhood"},"geometry":{"type":"Point","coordinates":[-74.1316154,40.6330367]}},{"type":"Feature","properties":{"code":"SI0107","name":"Mariner's Harbor-Arlington-Graniteville","kind":"neighborhood"},"geometry":{"type":"Point","coordinates":[-74.1648243,40.6288199]}},{"type":"Feature","properties":{"code":"SI0201","name":"Grasmere-Arrochar-South Beach-Dongan Hills","kind":"neighborhood"},"geometry":{"type":"Point","coordinates":[-74.0802659,40.5935219]}},{"type":"Feature","properties":{"code":"SI0202","name":"New Dorp-Midland Beach","kind":"neighborhood"},"geometry":{"type":"Point","coordinates":[-74.1135345,40.5724454]}},{"type":"Feature","properties":{"code":"SI0203","name":"Todt Hill-Emerson Hill-Lighthouse Hill-Manor Heights","kind":"neighborhood"},"geometry":{"type":"Point","coordinates":[-74.1261537,40.5856845]}},{"type":"Feature","properties":{"code":"SI0204","name":"New Springville-Willowbrook-Bulls Head-Travis","kind":"neighborhood"},"geometry":{"type":"Point","coordinates":[-74.1563098,40.6028186]}},{"type":"Feature","properties":{"code":"SI0301","name":"Oakwood-Richmondtown","kind":"neighborhood"},"geometry":{"type":"Point","coordinates":[-74.1196124,40.5620606]}},{"type":"Feature","properties":{"code":"SI0302","name":"Great Kills-Eltingville","kind":"neighborhood"},"geometry":{"type":"Point","coordinates":[-74.1584094,40.5491529]}},{"type":"Feature","properties":{"code":"SI0303","name":"Arden Heights-Rossville","kind":"neighborhood"},"geometry":{"type":"Point","coordinates":[-74.1972706,40.5533629]}},{"type":"Feature","properties":{"code":"SI0304","name":"Annadale-Huguenot-Prince's Bay-Woodrow","kind":"neighborhood"},"geometry":{"type":"Point","coordinates":[-74.1936084,40.5263637]}},{"type":"Feature","properties":{"code":"SI0305","name":"Tottenville-Charleston","kind":"neighborhood"},"geometry":{"type":"Point","coordinates":[-74.2332733,40.527291]}}]}
